[{"OBJECT_NAME":"STARLINK-5701","OBJECT_ID":"2023-015AQ","EPOCH":"2026-03-09T22:00:01.999584","MEAN_MOTION":15.12694755,"ECCENTRICITY":0.00012786,"INCLINATION":42.9995,"RA_OF_ASC_NODE":337.5289,"ARG_OF_PERICENTER":234.4918,"MEAN_ANOMALY":21.7272,"EPHEMERIS_TYPE":0,"CLASSIFICATION_TYPE":"U","NORAD_CAT_ID":55487,"ELEMENT_SET_NO":999,"REV_AT_EPOCH":573,"BSTAR":0.0027927684,"MEAN_MOTION_DOT":0.00049878,"MEAN_MOTION_DDOT":0},{"OBJECT_NAME":"YAOGAN-1 DEB","OBJECT_ID":"2006-015J","EPOCH":"2026-03-09T17:10:54.675840","MEAN_MOTION":15.17781465,"ECCENTRICITY":0.00121617,"INCLINATION":97.7703,"RA_OF_ASC_NODE":138.5844,"ARG_OF_PERICENTER":172.9693,"MEAN_ANOMALY":187.1713,"EPHEMERIS_TYPE":0,"CLASSIFICATION_TYPE":"U","NORAD_CAT_ID":36365,"ELEMENT_SET_NO":999,"REV_AT_EPOCH":87329,"BSTAR":0.00061009979,"MEAN_MOTION_DOT":0.0001229,"MEAN_MOTION_DDOT":0}]
